HAWK-5A                 
1 52757U 22057AB  26166.43121770  .00015990  00000+0  27355-3 0  9996
2 52757  97.6599 325.1651 0005682  84.3678 275.8222 15.51337988226078
HAWK-6B                 
1 55324U 23011A   26166.93713987  .00004419  00000+0  19252-3 0  9993
2 55324  40.4997 359.3629 0002525 351.4672   8.6094 15.22924458187659
HAWK-6C                 
1 55326U 23011C   26166.93647452  .00003833  00000+0  16810-3 0  9994
2 55326  40.4991 356.2052 0003492 342.6269  17.4420 15.22920976187662
HAWK-6A                 
1 55327U 23011D   26166.93652945  .00004263  00000+0  18602-3 0  9997
2 55327  40.4997 357.8300 0003191 339.9740  20.0944 15.22922068187666
HAWK-7A                 
1 56191U 23054P   26166.93110290  .00004594  00000+0  17419-3 0  9998
2 56191  97.2705  54.3006 0004413  60.2081 299.9597 15.27349644176831
HAWK-7B                 
1 56193U 23054R   26166.93101705  .00004617  00000+0  17508-3 0  9996
2 56193  97.2731  52.5641 0003785  70.9090 289.2559 15.27347622176830
HAWK-7C                 
1 56200U 23054Y   26166.93090733  .00004520  00000+0  17144-3 0  9992
2 56200  97.2707  53.3331 0003768  62.7332 297.4291 15.27349358176838
