OBJECT_NAME,OBJECT_ID,EPOCH,MEAN_MOTION,ECCENTRICITY,INCLINATION,RA_OF_ASC_NODE,ARG_OF_PERICENTER,MEAN_ANOMALY,EPHEMERIS_TYPE,CLASSIFICATION_TYPE,NORAD_CAT_ID,ELEMENT_SET_NO,REV_AT_EPOCH,BSTAR,MEAN_MOTION_DOT,MEAN_MOTION_DDOT
HAWK-5A,2022-057AB,2026-06-15T10:20:57.209280,15.51337988,.00056827,97.6599,325.1651,84.3678,275.8222,0,U,52757,999,22607,.2735514E-3,.1599E-3,0
HAWK-6B,2023-011A,2026-06-15T22:29:28.884768,15.22924458,.00025256,40.4997,359.3629,351.4672,8.6094,0,U,55324,999,18765,.19251519E-3,.4419E-4,0
HAWK-6C,2023-011C,2026-06-15T22:28:31.398528,15.22920976,.00034928,40.4991,356.2052,342.6269,17.4420,0,U,55326,999,18766,.16809969E-3,.3833E-4,0
HAWK-6A,2023-011D,2026-06-15T22:28:36.144480,15.22922068,.00031912,40.4997,357.8300,339.9740,20.0944,0,U,55327,999,18766,.18602049E-3,.4263E-4,0
HAWK-7A,2023-054P,2026-06-15T22:20:47.290560,15.27349644,.00044131,97.2705,54.3006,60.2081,299.9597,0,U,56191,999,17683,.17419147E-3,.4594E-4,0
HAWK-7B,2023-054R,2026-06-15T22:20:39.873120,15.27347622,.00037858,97.2731,52.5641,70.9090,289.2559,0,U,56193,999,17683,.17507991E-3,.4617E-4,0
HAWK-7C,2023-054Y,2026-06-15T22:20:30.393312,15.27349358,.00037688,97.2707,53.3331,62.7332,297.4291,0,U,56200,999,17683,.17144392E-3,.452E-4,0
